H1 CPF  1  DGF 2022 05 29 10  6491 larets     NONE      
H2   304206 5557    27944 2022 05 20 00 00 00 2022 05 27 00 00 00    30 1 1  0 0 0
H5  0.0650
H9
10 0 59724   3600.000000  0       3104457.243       1833714.336      -6074544.049
10 0 59724   3630.000000  0       3298932.530       1865779.975      -5960889.792
10 0 59724   3660.000000  0       3490211.764       1895118.195      -5841173.256
10 0 59724   3690.000000  0       3678088.789       1921713.221      -5715514.378
10 0 59724   3720.000000  0       3862360.684       1945552.918      -5584039.190
10 0 59724   3750.000000  0       4042827.990       1966628.788      -5446879.703
10 0 59724   3780.000000  0       4219294.937       1984935.972      -5304173.782
10 0 59724   3810.000000  0       4391569.659       2000473.238      -5156065.019
10 0 59724   3840.000000  0       4559464.414       2013242.973      -5002702.591
10 0 59724   3870.000000  0       4722795.794       2023251.162      -4844241.122
10 0 59724   3900.000000  0       4881384.931       2030507.369      -4680840.530
10 0 59724   3930.000000  0       5035057.704       2035024.712      -4512665.880
10 0 59724   3960.000000  0       5183644.942       2036819.830      -4339887.218
10 0 59724   3990.000000  0       5326982.617       2035912.851      -4162679.408
10 0 59724   4020.000000  0       5464912.035       2032327.353      -3981221.955
10 0 59724   4050.000000  0       5597280.019       2026090.317      -3795698.837
10 0 59724   4080.000000  0       5723939.095       2017232.084      -3606298.319
10 0 59724   4110.000000  0       5844747.667       2005786.300      -3413212.770
10 0 59724   4140.000000  0       5959570.192       1991789.860      -3216638.468
10 0 59724   4170.000000  0       6068277.344       1975282.848      -3016775.397
10 0 59724   4200.000000  0       6170746.168       1956308.473      -2813827.045
10 0 59724   4230.000000  0       6266860.234       1934913.003      -2608000.196
10 0 59724   4260.000000  0       6356509.779       1911145.687      -2399504.714
10 0 59724   4290.000000  0       6439591.843       1885058.683      -2188553.331
10 0 59724   4320.000000  0       6516010.399       1856706.974      -1975361.419
10 0 59724   4350.000000  0       6585676.470       1826148.283      -1760146.771
10 0 59724   4380.000000  0       6648508.244       1793442.988      -1543129.373
10 0 59724   4410.000000  0       6704431.179       1758654.025      -1324531.176
10 0 59724   4440.000000  0       6753378.105       1721846.798      -1104575.862
10 0 59724   4470.000000  0       6795289.311       1683089.078       -883488.599
10 0 59724   4500.000000  0       6830112.624       1642450.899       -661495.807
10 0 59724   4530.000000  0       6857803.471       1600004.456       -438824.911
10 0 59724   4560.000000  0       6878324.940       1555823.996       -215704.102
10 0 59724   4590.000000  0       6891647.828       1509985.709          7637.899
10 0 59724   4620.000000  0       6897750.684       1462567.620        230972.082
10 0 59724   4650.000000  0       6896619.850       1413649.470        454069.394
10 0 59724   4680.000000  0       6888249.483       1363312.607        676700.979
10 0 59724   4710.000000  0       6872641.576       1311639.860        898638.424
10 0 59724   4740.000000  0       6849805.966       1258715.421       1119654.008
10 0 59724   4770.000000  0       6819760.330       1204624.722       1339520.946
10 0 59724   4800.000000  0       6782530.170       1149454.312       1558013.633
10 0 59724   4830.000000  0       6738148.787       1093291.731       1774907.892
10 0 59724   4860.000000  0       6686657.246       1036225.383       1989981.207
10 0 59724   4890.000000  0       6628104.333        978344.408       2203012.958
10 0 59724   4920.000000  0       6562546.505        919738.556       2413784.656
10 0 59724   4950.000000  0       6490047.829        860498.063       2622080.172
10 0 59724   4980.000000  0       6410679.920        800713.517       2827685.968
10 0 59724   5010.000000  0       6324521.860        740475.738       3030391.322
10 0 59724   5040.000000  0       6231660.114        679875.644       3229988.558
10 0 59724   5070.000000  0       6132188.430        619004.126       3426273.264
10 0 59724   5100.000000  0       6026207.729        557951.913       3619044.508
10 0 59724   5130.000000  0       5913825.987        496809.456       3808105.035
10 0 59724   5160.000000  0       5795158.119        435666.798       3993261.470
10 0 59724   5190.000000  0       5670325.858        374613.459       4174324.520
10 0 59724   5220.000000  0       5539457.624        313738.311       4351109.167
10 0 59724   5250.000000  0       5402688.377        253129.454       4523434.868
10 0 59724   5280.000000  0       5260159.468        192874.097       4691125.738
10 0 59724   5310.000000  0       5112018.483        133058.441       4854010.730
10 0 59724   5340.000000  0       4958419.072         73767.559       5011923.808
10 0 59724   5370.000000  0       4799520.784         15085.285       5164704.116
10 0 59724   5400.000000  0       4635488.880        -42905.902       5312196.137
10 0 59724   5430.000000  0       4466494.156       -100124.985       5454249.846
10 0 59724   5460.000000  0       4292712.751       -156492.514       5590720.856
10 0 59724   5490.000000  0       4114325.956       -211930.704       5721470.558
10 0 59724   5520.000000  0       3931520.018       -266363.543       5846366.260
10 0 59724   5550.000000  0       3744485.935       -319716.879       5965281.316
10 0 59724   5580.000000  0       3553419.247       -371918.526       6078095.247
10 0 59724   5610.000000  0       3358519.828       -422898.349       6184693.860
10 0 59724   5640.000000  0       3159991.664       -472588.356       6284969.353
10 0 59724   5670.000000  0       2958042.639       -520922.786       6378820.418
10 0 59724   5700.000000  0       2752884.312       -567838.184       6466152.337
10 0 59724   5730.000000  0       2544731.687       -613273.483       6546877.076
10 0 59724   5760.000000  0       2333802.986       -657170.081       6620913.365
10 0 59724   5790.000000  0       2120319.415       -699471.907       6688186.777
10 0 59724   5820.000000  0       1904504.924       -740125.496       6748629.797
10 0 59724   5850.000000  0       1686585.966       -779080.054       6802181.883
10 0 59724   5880.000000  0       1466791.259       -816287.512       6848789.517
10 0 59724   5910.000000  0       1245351.537       -851702.589       6888406.253
10 0 59724   5940.000000  0       1022499.311       -885282.835       6920992.754
10 0 59724   5970.000000  0        798468.626       -916988.690       6946516.828
10 0 59724   6000.000000  0        573494.813       -946783.520       6964953.454
10 0 59724   6030.000000  0        347814.236       -974633.665       6976284.804
10 0 59724   6060.000000  0        121664.049      -1000508.470       6980500.250
10 0 59724   6090.000000  0       -104718.054      -1024380.322       6977596.374
10 0 59724   6120.000000  0       -331094.086      -1046224.676       6967576.962
10 0 59724   6150.000000  0       -557226.020      -1066020.079       6950453.007
10 0 59724   6180.000000  0       -782876.035      -1083748.196       6926242.685
10 0 59724   6210.000000  0      -1007806.767      -1099393.818       6894971.337
10 0 59724   6240.000000  0      -1231781.555      -1112944.876       6856671.444
10 0 59724   6270.000000  0      -1454564.691      -1124392.452       6811382.585
10 0 59724   6300.000000  0      -1675921.661      -1133730.776       6759151.404
10 0 59724   6330.000000  0      -1895619.391      -1140957.229       6700031.560
10 0 59724   6360.000000  0      -2113426.495      -1146072.337       6634083.673
10 0 59724   6390.000000  0      -2329113.510      -1149079.764       6561375.266
10 0 59724   6420.000000  0      -2542453.139      -1149986.294       6481980.705
10 0 59724   6450.000000  0      -2753220.498      -1148801.817       6395981.123
10 0 59724   6480.000000  0      -2961193.350      -1145539.308       6303464.349
10 0 59724   6510.000000  0      -3166152.346      -1140214.801       6204524.808
10 0 59724   6540.000000  0      -3367881.256      -1132847.363       6099263.440
10 0 59724   6570.000000  0      -3566167.198      -1123459.058       5987787.590
10 0 59724   6600.000000  0      -3760800.867      -1112074.913       5870210.911
10 0 59724   6630.000000  0      -3951576.756      -1098722.879       5746653.250
10 0 59724   6660.000000  0      -4138293.384      -1083433.783       5617240.526
10 0 59724   6690.000000  0      -4320753.507      -1066241.280       5482104.611
10 0 59724   6720.000000  0      -4498764.333      -1047181.804       5341383.188
10 0 59724   6750.000000  0      -4672137.727      -1026294.503       5195219.624
10 0 59724   6780.000000  0      -4840690.414      -1003621.189       5043762.819
10 0 59724   6810.000000  0      -5004244.182       -979206.269       4887167.067
10 0 59724   6840.000000  0      -5162626.072       -953096.680       4725591.888
10 0 59724   6870.000000  0      -5315668.564       -925341.820       4559201.877
10 0 59724   6900.000000  0      -5463209.763       -895993.471       4388166.533
10 0 59724   6930.000000  0      -5605093.570       -865105.724       4212660.089
10 0 59724   6960.000000  0      -5741169.852       -832734.897       4032861.338
10 0 59724   6990.000000  0      -5871294.607       -798939.455       3848953.455
10 0 59724   7020.000000  0      -5995330.123       -763779.921       3661123.809
10 0 59724   7050.000000  0      -6113145.126       -727318.790       3469563.776
10 0 59724   7080.000000  0      -6224614.929       -689620.434       3274468.549
10 0 59724   7110.000000  0      -6329621.573       -650751.012       3076036.936
10 0 59724   7140.000000  0      -6428053.957       -610778.367       2874471.157
10 0 59724   7170.000000  0      -6519807.965       -569771.933       2669976.636
99
